{
  "type": "FeatureCollection",
  "features": [
    {
      "type": "Feature",
      "properties": {
        "norad_id": 38833,
        "name": "GPS BIIF-3  (PRN 24)",
        "group": "gps-ops",
        "lat": 18.332384115778204,
        "lon": -42.77642302640971,
        "alt_km": 20195.995785077066,
        "timestamp": "2025-12-08T13:49:32.051418+00:00",
        "meta_object_name": "GPS BIIF-3  (PRN 24)",
        "meta_object_id": "2012-053A",
        "meta_epoch": "2025-12-07T20:46:13.738656",
        "meta_mean_motion": 2.00564906,
        "meta_eccentricity": 0.01756617,
        "meta_inclination": 53.5567,
        "meta_ra_of_asc_node": 151.4383,
        "meta_arg_of_pericenter": 63.924,
        "meta_mean_anomaly": 297.8703,
        "meta_ephemeris_type": 0,
        "meta_classification_type": "U",
        "meta_norad_cat_id": 38833,
        "meta_element_set_no": 999,
        "meta_rev_at_epoch": 9560,
        "meta_bstar": 0,
        "meta_mean_motion_dot": 5.3e-07,
        "meta_mean_motion_ddot": 0,
        "tle_line1": "1 38833U 12053A   25341.86543679  .00000053  00000+0  00000+0 0  9995",
        "tle_line2": "2 38833  53.5567 151.4383 0175661  63.9240 297.8703  2.00564906 95601"
      },
      "geometry": {
        "type": "Point",
        "coordinates": [
          -42.77642302640971,
          18.332384115778204
        ]
      }
    },
    {
      "type": "Feature",
      "properties": {
        "norad_id": 39166,
        "name": "GPS BIIF-4  (PRN 27)",
        "group": "gps-ops",
        "lat": -50.85557617150227,
        "lon": 157.25979155457495,
        "alt_km": 20521.88313399064,
        "timestamp": "2025-12-08T13:49:32.051430+00:00",
        "meta_object_name": "GPS BIIF-4  (PRN 27)",
        "meta_object_id": "2013-023A",
        "meta_epoch": "2025-12-07T05:32:23.722368",
        "meta_mean_motion": 2.00565063,
        "meta_eccentricity": 0.01375641,
        "meta_inclination": 54.6569,
        "meta_ra_of_asc_node": 276.7922,
        "meta_arg_of_pericenter": 48.5542,
        "meta_mean_anomaly": 312.6301,
        "meta_ephemeris_type": 0,
        "meta_classification_type": "U",
        "meta_norad_cat_id": 39166,
        "meta_element_set_no": 999,
        "meta_rev_at_epoch": 9203,
        "meta_bstar": 0,
        "meta_mean_motion_dot": -3.4e-07,
        "meta_mean_motion_ddot": 0,
        "tle_line1": "1 39166U 13023A   25341.23083012 -.00000034  00000+0  00000+0 0  9994",
        "tle_line2": "2 39166  54.6569 276.7922 0137564  48.5542 312.6301  2.00565063 92038"
      },
      "geometry": {
        "type": "Point",
        "coordinates": [
          157.25979155457495,
          -50.85557617150227
        ]
      }
    },
    {
      "type": "Feature",
      "properties": {
        "norad_id": 39533,
        "name": "GPS BIIF-5  (PRN 30)",
        "group": "gps-ops",
        "lat": -51.138241858455615,
        "lon": 43.272310934481276,
        "alt_km": 20002.58167195105,
        "timestamp": "2025-12-08T13:49:32.051441+00:00",
        "meta_object_name": "GPS BIIF-5  (PRN 30)",
        "meta_object_id": "2014-008A",
        "meta_epoch": "2025-12-07T17:22:04.649088",
        "meta_mean_motion": 2.00574086,
        "meta_eccentricity": 0.007908,
        "meta_inclination": 53.6303,
        "meta_ra_of_asc_node": 157.1293,
        "meta_arg_of_pericenter": 226.426,
        "meta_mean_anomaly": 132.9228,
        "meta_ephemeris_type": 0,
        "meta_classification_type": "U",
        "meta_norad_cat_id": 39533,
        "meta_element_set_no": 999,
        "meta_rev_at_epoch": 8584,
        "meta_bstar": 0,
        "meta_mean_motion_dot": 5.5e-07,
        "meta_mean_motion_ddot": 0,
        "tle_line1": "1 39533U 14008A   25341.72366492  .00000055  00000+0  00000+0 0  9998",
        "tle_line2": "2 39533  53.6303 157.1293 0079080 226.4260 132.9228  2.00574086 85843"
      },
      "geometry": {
        "type": "Point",
        "coordinates": [
          43.272310934481276,
          -51.138241858455615
        ]
      }
    },
    {
      "type": "Feature",
      "properties": {
        "norad_id": 39741,
        "name": "GPS BIIF-6  (PRN 06)",
        "group": "gps-ops",
        "lat": 40.68610043640072,
        "lon": 13.510639970463147,
        "alt_km": 20182.680227270866,
        "timestamp": "2025-12-08T13:49:32.051453+00:00",
        "meta_object_name": "GPS BIIF-6  (PRN 06)",
        "meta_object_id": "2014-026A",
        "meta_epoch": "2025-12-08T00:09:26.593920",
        "meta_mean_motion": 2.00561568,
        "meta_eccentricity": 0.00390609,
        "meta_inclination": 56.5854,
        "meta_ra_of_asc_node": 338.9605,
        "meta_arg_of_pericenter": 318.4068,
        "meta_mean_anomaly": 41.3073,
        "meta_ephemeris_type": 0,
        "meta_classification_type": "U",
        "meta_norad_cat_id": 39741,
        "meta_element_set_no": 999,
        "meta_rev_at_epoch": 8470,
        "meta_bstar": 0,
        "meta_mean_motion_dot": -8.2e-07,
        "meta_mean_motion_ddot": 0,
        "tle_line1": "1 39741U 14026A   25342.00655780 -.00000082  00000+0  00000+0 0  9993",
        "tle_line2": "2 39741  56.5854 338.9605 0039060 318.4068  41.3073  2.00561568 84701"
      },
      "geometry": {
        "type": "Point",
        "coordinates": [
          13.510639970463147,
          40.68610043640072
        ]
      }
    },
    {
      "type": "Feature",
      "properties": {
        "norad_id": 40105,
        "name": "GPS BIIF-7  (PRN 09)",
        "group": "gps-ops",
        "lat": -9.952731563036167,
        "lon": 89.06527911362505,
        "alt_km": 20241.089975890412,
        "timestamp": "2025-12-08T13:49:32.051464+00:00",
        "meta_object_name": "GPS BIIF-7  (PRN 09)",
        "meta_object_id": "2014-045A",
        "meta_epoch": "2025-12-07T14:17:59.496864",
        "meta_mean_motion": 2.00572139,
        "meta_eccentricity": 0.00328259,
        "meta_inclination": 55.2261,
        "meta_ra_of_asc_node": 96.1042,
        "meta_arg_of_pericenter": 119.7348,
        "meta_mean_anomaly": 240.5718,
        "meta_ephemeris_type": 0,
        "meta_classification_type": "U",
        "meta_norad_cat_id": 40105,
        "meta_element_set_no": 999,
        "meta_rev_at_epoch": 8223,
        "meta_bstar": 0,
        "meta_mean_motion_dot": -4e-08,
        "meta_mean_motion_ddot": 0,
        "tle_line1": "1 40105U 14045A   25341.59582751 -.00000004  00000+0  00000+0 0  9994",
        "tle_line2": "2 40105  55.2261  96.1042 0032825 119.7348 240.5718  2.00572139 82239"
      },
      "geometry": {
        "type": "Point",
        "coordinates": [
          89.06527911362505,
          -9.952731563036167
        ]
      }
    },
    {
      "type": "Feature",
      "properties": {
        "norad_id": 40294,
        "name": "GPS BIIF-8  (PRN 03)",
        "group": "gps-ops",
        "lat": 54.642941678555474,
        "lon": 105.27378539920167,
        "alt_km": 20015.46707858061,
        "timestamp": "2025-12-08T13:49:32.051475+00:00",
        "meta_object_name": "GPS BIIF-8  (PRN 03)",
        "meta_object_id": "2014-068A",
        "meta_epoch": "2025-12-05T23:27:53.798400",
        "meta_mean_motion": 2.00564264,
        "meta_eccentricity": 0.00608121,
        "meta_inclination": 56.8528,
        "meta_ra_of_asc_node": 38.4077,
        "meta_arg_of_pericenter": 69.3337,
        "meta_mean_anomaly": 291.3749,
        "meta_ephemeris_type": 0,
        "meta_classification_type": "U",
        "meta_norad_cat_id": 40294,
        "meta_element_set_no": 999,
        "meta_rev_at_epoch": 8133,
        "meta_bstar": 0,
        "meta_mean_motion_dot": -6.8e-07,
        "meta_mean_motion_ddot": 0,
        "tle_line1": "1 40294U 14068A   25339.97770600 -.00000068  00000+0  00000+0 0  9999",
        "tle_line2": "2 40294  56.8528  38.4077 0060812  69.3337 291.3749  2.00564264 81331"
      },
      "geometry": {
        "type": "Point",
        "coordinates": [
          105.27378539920167,
          54.642941678555474
        ]
      }
    },
    {
      "type": "Feature",
      "properties": {
        "norad_id": 40534,
        "name": "GPS BIIF-9  (PRN 26)",
        "group": "gps-ops",
        "lat": -14.313804174051354,
        "lon": -158.93328614167578,
        "alt_km": 20024.84143279533,
        "timestamp": "2025-12-08T13:49:32.051486+00:00",
        "meta_object_name": "GPS BIIF-9  (PRN 26)",
        "meta_object_id": "2015-013A",
        "meta_epoch": "2025-12-07T14:28:59.851200",
        "meta_mean_motion": 2.00562814,
        "meta_eccentricity": 0.01068213,
        "meta_inclination": 53.1985,
        "meta_ra_of_asc_node": 212.103,
        "meta_arg_of_pericenter": 38.3543,
        "meta_mean_anomaly": 322.4903,
        "meta_ephemeris_type": 0,
        "meta_classification_type": "U",
        "meta_norad_cat_id": 40534,
        "meta_element_set_no": 999,
        "meta_rev_at_epoch": 7798,
        "meta_bstar": 0,
        "meta_mean_motion_dot": 3.4e-07,
        "meta_mean_motion_ddot": 0,
        "tle_line1": "1 40534U 15013A   25341.60347050  .00000034  00000+0  00000+0 0  9991",
        "tle_line2": "2 40534  53.1985 212.1030 0106821  38.3543 322.4903  2.00562814 77984"
      },
      "geometry": {
        "type": "Point",
        "coordinates": [
          -158.93328614167578,
          -14.313804174051354
        ]
      }
    }
  ]
}